[{"OBJECT_NAME":"QIANFAN-18","OBJECT_ID":"2024-140T","EPOCH":"2026-03-15T07:01:51.163392","MEAN_MOTION":13.51004617,"ECCENTRICITY":0.00125477,"INCLINATION":88.9705,"RA_OF_ASC_NODE":289.3951,"ARG_OF_PERICENTER":283.7034,"MEAN_ANOMALY":76.272,"EPHEMERIS_TYPE":0,"CLASSIFICATION_TYPE":"U","NORAD_CAT_ID":60396,"ELEMENT_SET_NO":999,"REV_AT_EPOCH":8002,"BSTAR":7.921089e-5,"MEAN_MOTION_DOT":6.3e-7,"MEAN_MOTION_DDOT":0},{"OBJECT_NAME":"QIANFAN-19","OBJECT_ID":"2024-185A","EPOCH":"2026-03-15T06:22:24.816864","MEAN_MOTION":14.14397615,"ECCENTRICITY":0.00077016,"INCLINATION":88.9767,"RA_OF_ASC_NODE":67.3149,"ARG_OF_PERICENTER":25.6064,"MEAN_ANOMALY":334.5503,"EPHEMERIS_TYPE":0,"CLASSIFICATION_TYPE":"U","NORAD_CAT_ID":61552,"ELEMENT_SET_NO":999,"REV_AT_EPOCH":8274,"BSTAR":0.00024542882,"MEAN_MOTION_DOT":4.84e-6,"MEAN_MOTION_DDOT":0},{"OBJECT_NAME":"QIANFAN-20","OBJECT_ID":"2024-185B","EPOCH":"2026-03-15T07:13:10.464384","MEAN_MOTION":14.08943625,"ECCENTRICITY":0.00078478,"INCLINATION":88.9764,"RA_OF_ASC_NODE":67.7279,"ARG_OF_PERICENTER":60.9965,"MEAN_ANOMALY":299.2005,"EPHEMERIS_TYPE":0,"CLASSIFICATION_TYPE":"U","NORAD_CAT_ID":61553,"ELEMENT_SET_NO":999,"REV_AT_EPOCH":8252,"BSTAR":0.00024630936,"MEAN_MOTION_DOT":4.4e-6,"MEAN_MOTION_DDOT":0},{"OBJECT_NAME":"QIANFAN-21","OBJECT_ID":"2024-185C","EPOCH":"2026-03-15T05:46:53.497344","MEAN_MOTION":14.22742418,"ECCENTRICITY":0.0012864,"INCLINATION":88.9686,"RA_OF_ASC_NODE":66.1207,"ARG_OF_PERICENTER":66.9907,"MEAN_ANOMALY":293.264,"EPHEMERIS_TYPE":0,"CLASSIFICATION_TYPE":"U","NORAD_CAT_ID":61554,"ELEMENT_SET_NO":999,"REV_AT_EPOCH":8312,"BSTAR":0.00030259775,"MEAN_MOTION_DOT":6.93e-6,"MEAN_MOTION_DDOT":0},{"OBJECT_NAME":"QIANFAN-22","OBJECT_ID":"2024-185D","EPOCH":"2026-03-15T05:59:07.416960","MEAN_MOTION":13.8634429,"ECCENTRICITY":0.00086099,"INCLINATION":88.9747,"RA_OF_ASC_NODE":69.089,"ARG_OF_PERICENTER":77.7495,"MEAN_ANOMALY":282.464,"EPHEMERIS_TYPE":0,"CLASSIFICATION_TYPE":"U","NORAD_CAT_ID":61555,"ELEMENT_SET_NO":999,"REV_AT_EPOCH":8175,"BSTAR":0.00022570948,"MEAN_MOTION_DOT":2.74e-6,"MEAN_MOTION_DDOT":0},{"OBJECT_NAME":"QIANFAN-23","OBJECT_ID":"2024-185E","EPOCH":"2026-03-15T06:02:31.651008","MEAN_MOTION":14.16404895,"ECCENTRICITY":0.00087634,"INCLINATION":88.976,"RA_OF_ASC_NODE":67.0826,"ARG_OF_PERICENTER":33.7099,"MEAN_ANOMALY":326.4645,"EPHEMERIS_TYPE":0,"CLASSIFICATION_TYPE":"U","NORAD_CAT_ID":61556,"ELEMENT_SET_NO":999,"REV_AT_EPOCH":8284,"BSTAR":0.0003067937,"MEAN_MOTION_DOT":6.24e-6,"MEAN_MOTION_DDOT":0},{"OBJECT_NAME":"QIANFAN-24","OBJECT_ID":"2024-185F","EPOCH":"2026-03-15T05:39:36.674496","MEAN_MOTION":14.23950002,"ECCENTRICITY":0.00094448,"INCLINATION":88.9743,"RA_OF_ASC_NODE":66.3383,"ARG_OF_PERICENTER":11.3398,"MEAN_ANOMALY":348.8005,"EPHEMERIS_TYPE":0,"CLASSIFICATION_TYPE":"U","NORAD_CAT_ID":61557,"ELEMENT_SET_NO":999,"REV_AT_EPOCH":8318,"BSTAR":0.0003467665,"MEAN_MOTION_DOT":8.09e-6,"MEAN_MOTION_DDOT":0},{"OBJECT_NAME":"QIANFAN-25","OBJECT_ID":"2024-185G","EPOCH":"2026-03-15T05:52:08.740704","MEAN_MOTION":14.06004734,"ECCENTRICITY":0.00117279,"INCLINATION":88.9756,"RA_OF_ASC_NODE":67.6969,"ARG_OF_PERICENTER":40.6477,"MEAN_ANOMALY":319.5579,"EPHEMERIS_TYPE":0,"CLASSIFICATION_TYPE":"U","NORAD_CAT_ID":61558,"ELEMENT_SET_NO":999,"REV_AT_EPOCH":8250,"BSTAR":0.0002733695,"MEAN_MOTION_DOT":4.62e-6,"MEAN_MOTION_DDOT":0},{"OBJECT_NAME":"QIANFAN-26","OBJECT_ID":"2024-185H","EPOCH":"2026-03-15T06:26:42.861696","MEAN_MOTION":13.77866113,"ECCENTRICITY":0.0007958,"INCLINATION":88.9752,"RA_OF_ASC_NODE":69.7425,"ARG_OF_PERICENTER":90.9325,"MEAN_ANOMALY":269.2753,"EPHEMERIS_TYPE":0,"CLASSIFICATION_TYPE":"U","NORAD_CAT_ID":61559,"ELEMENT_SET_NO":999,"REV_AT_EPOCH":8141,"BSTAR":0.00021867061,"MEAN_MOTION_DOT":2.32e-6,"MEAN_MOTION_DDOT":0},{"OBJECT_NAME":"QIANFAN-27","OBJECT_ID":"2024-185J","EPOCH":"2026-03-15T06:48:37.811808","MEAN_MOTION":14.27455232,"ECCENTRICITY":0.00075003,"INCLINATION":88.9757,"RA_OF_ASC_NODE":66.0707,"ARG_OF_PERICENTER":4.138,"MEAN_ANOMALY":355.9875,"EPHEMERIS_TYPE":0,"CLASSIFICATION_TYPE":"U","NORAD_CAT_ID":61560,"ELEMENT_SET_NO":999,"REV_AT_EPOCH":8336,"BSTAR":0.00024062749,"MEAN_MOTION_DOT":6.05e-6,"MEAN_MOTION_DDOT":0},{"OBJECT_NAME":"QIANFAN-28","OBJECT_ID":"2024-185K","EPOCH":"2026-03-15T06:54:48.314016","MEAN_MOTION":14.28233653,"ECCENTRICITY":0.00070791,"INCLINATION":88.9773,"RA_OF_ASC_NODE":66.0777,"ARG_OF_PERICENTER":5.4089,"MEAN_ANOMALY":354.718,"EPHEMERIS_TYPE":0,"CLASSIFICATION_TYPE":"U","NORAD_CAT_ID":61561,"ELEMENT_SET_NO":999,"REV_AT_EPOCH":8338,"BSTAR":0.00036885982,"MEAN_MOTION_DOT":9.33e-6,"MEAN_MOTION_DDOT":0},{"OBJECT_NAME":"QIANFAN-29","OBJECT_ID":"2024-185L","EPOCH":"2026-03-15T05:48:33.482016","MEAN_MOTION":13.51047745,"ECCENTRICITY":0.00111691,"INCLINATION":88.9724,"RA_OF_ASC_NODE":71.7305,"ARG_OF_PERICENTER":134.4769,"MEAN_ANOMALY":225.7297,"EPHEMERIS_TYPE":0,"CLASSIFICATION_TYPE":"U","NORAD_CAT_ID":61562,"ELEMENT_SET_NO":999,"REV_AT_EPOCH":8028,"BSTAR":0.00031271258,"MEAN_MOTION_DOT":2.14e-6,"MEAN_MOTION_DDOT":0},{"OBJECT_NAME":"QIANFAN-30","OBJECT_ID":"2024-185M","EPOCH":"2026-03-15T06:53:17.514528","MEAN_MOTION":13.50022466,"ECCENTRICITY":0.00093173,"INCLINATION":88.9744,"RA_OF_ASC_NODE":71.2867,"ARG_OF_PERICENTER":120.2415,"MEAN_ANOMALY":239.9659,"EPHEMERIS_TYPE":0,"CLASSIFICATION_TYPE":"U","NORAD_CAT_ID":61563,"ELEMENT_SET_NO":999,"REV_AT_EPOCH":8055,"BSTAR":0.000290008,"MEAN_MOTION_DOT":1.97e-6,"MEAN_MOTION_DDOT":0},{"OBJECT_NAME":"QIANFAN-31","OBJECT_ID":"2024-185N","EPOCH":"2026-03-15T05:27:52.489440","MEAN_MOTION":13.58007231,"ECCENTRICITY":0.00089073,"INCLINATION":88.9729,"RA_OF_ASC_NODE":70.9475,"ARG_OF_PERICENTER":112.6524,"MEAN_ANOMALY":247.5574,"EPHEMERIS_TYPE":0,"CLASSIFICATION_TYPE":"U","NORAD_CAT_ID":61564,"ELEMENT_SET_NO":999,"REV_AT_EPOCH":8071,"BSTAR":0.00028361454,"MEAN_MOTION_DOT":2.17e-6,"MEAN_MOTION_DDOT":0},{"OBJECT_NAME":"QIANFAN-32","OBJECT_ID":"2024-185P","EPOCH":"2026-03-15T06:40:53.804064","MEAN_MOTION":13.50766869,"ECCENTRICITY":0.00105765,"INCLINATION":88.9788,"RA_OF_ASC_NODE":71.4501,"ARG_OF_PERICENTER":146.3668,"MEAN_ANOMALY":213.8156,"EPHEMERIS_TYPE":0,"CLASSIFICATION_TYPE":"U","NORAD_CAT_ID":61565,"ELEMENT_SET_NO":999,"REV_AT_EPOCH":8053,"BSTAR":0.0002413726,"MEAN_MOTION_DOT":1.67e-6,"MEAN_MOTION_DDOT":0},{"OBJECT_NAME":"QIANFAN-33","OBJECT_ID":"2024-185Q","EPOCH":"2026-03-15T06:11:20.047488","MEAN_MOTION":13.96632119,"ECCENTRICITY":0.00088128,"INCLINATION":88.9744,"RA_OF_ASC_NODE":68.4704,"ARG_OF_PERICENTER":49.8245,"MEAN_ANOMALY":310.3702,"EPHEMERIS_TYPE":0,"CLASSIFICATION_TYPE":"U","NORAD_CAT_ID":61566,"ELEMENT_SET_NO":999,"REV_AT_EPOCH":8207,"BSTAR":0.00032289338,"MEAN_MOTION_DOT":4.61e-6,"MEAN_MOTION_DDOT":0},{"OBJECT_NAME":"QIANFAN-34","OBJECT_ID":"2024-185R","EPOCH":"2026-03-15T06:31:25.083840","MEAN_MOTION":14.02393299,"ECCENTRICITY":0.000773,"INCLINATION":88.9724,"RA_OF_ASC_NODE":67.9095,"ARG_OF_PERICENTER":52.1115,"MEAN_ANOMALY":308.0764,"EPHEMERIS_TYPE":0,"CLASSIFICATION_TYPE":"U","NORAD_CAT_ID":61567,"ELEMENT_SET_NO":999,"REV_AT_EPOCH":8232,"BSTAR":0.00033001436,"MEAN_MOTION_DOT":5.2e-6,"MEAN_MOTION_DDOT":0}]
