QIANFAN-18              
1 60396U 24140T   26074.29295328  .00000063  00000+0  79211-4 0  9996
2 60396  88.9705 289.3951 0012547 283.7034  76.2720 13.51004617 80028
QIANFAN-19              
1 61552U 24185A   26074.26556501  .00000484  00000+0  24543-3 0  9994
2 61552  88.9767  67.3149 0007701  25.6064 334.5503 14.14397615 82749
QIANFAN-20              
1 61553U 24185B   26074.30081556  .00000440  00000+0  24631-3 0  9993
2 61553  88.9764  67.7279 0007847  60.9965 299.2005 14.08943625 82529
QIANFAN-21              
1 61554U 24185C   26074.24089696  .00000693  00000+0  30260-3 0  9995
2 61554  88.9686  66.1207 0012864  66.9907 293.2640 14.22742418 83123
QIANFAN-22              
1 61555U 24185D   26074.24939140  .00000274  00000+0  22571-3 0  9995
2 61555  88.9747  69.0890 0008609  77.7495 282.4640 13.86344290 81758
QIANFAN-23              
1 61556U 24185E   26074.25175522  .00000624  00000+0  30679-3 0  9990
2 61556  88.9760  67.0826 0008763  33.7099 326.4645 14.16404895 82841
QIANFAN-24              
1 61557U 24185F   26074.23584114  .00000809  00000+0  34677-3 0  9997
2 61557  88.9743  66.3383 0009444  11.3398 348.8005 14.23950002 83184
QIANFAN-25              
1 61558U 24185G   26074.24454561  .00000462  00000+0  27337-3 0  9991
2 61558  88.9756  67.6969 0011727  40.6477 319.5579 14.06004734 82502
QIANFAN-26              
1 61559U 24185H   26074.26855164  .00000232  00000+0  21867-3 0  9995
2 61559  88.9752  69.7425 0007958  90.9325 269.2753 13.77866113 81418
QIANFAN-27              
1 61560U 24185J   26074.28377097  .00000605  00000+0  24063-3 0  9998
2 61560  88.9757  66.0707 0007500   4.1380 355.9875 14.27455232 83365
QIANFAN-28              
1 61561U 24185K   26074.28805919  .00000933  00000+0  36886-3 0  9998
2 61561  88.9773  66.0777 0007079   5.4089 354.7180 14.28233653 83382
QIANFAN-29              
1 61562U 24185L   26074.24205419  .00000214  00000+0  31271-3 0  9999
2 61562  88.9724  71.7305 0011169 134.4769 225.7297 13.51047745 80284
QIANFAN-30              
1 61563U 24185M   26074.28700827  .00000197  00000+0  29001-3 0  9995
2 61563  88.9744  71.2867 0009317 120.2415 239.9659 13.50022466 80559
QIANFAN-31              
1 61564U 24185N   26074.22769085  .00000217  00000+0  28361-3 0  9992
2 61564  88.9729  70.9475 0008907 112.6524 247.5574 13.58007231 80714
QIANFAN-32              
1 61565U 24185P   26074.27840051  .00000167  00000+0  24137-3 0  9992
2 61565  88.9788  71.4501 0010576 146.3668 213.8156 13.50766869 80537
QIANFAN-33              
1 61566U 24185Q   26074.25787092  .00000461  00000+0  32289-3 0  9990
2 61566  88.9744  68.4704 0008812  49.8245 310.3702 13.96632119 82070
QIANFAN-34              
1 61567U 24185R   26074.27181810  .00000520  00000+0  33001-3 0  9998
2 61567  88.9724  67.9095 0007730  52.1115 308.0764 14.02393299 82328
